#dP2019  3 14  0  0  0.00000000      96 __u+U IGS08 FIT  IAC
## 2044 345600.00000000   900.00000000 58556 0.0000000000000
+   96   C01C03C04C05C06C07C08C09C10C11C12C13C14C16E01E02E03
+        E04E05E07E08E09E11E12E13E14E15E18E19E21E24E25E26E27
+        E30E31E33E36G01G02G03G04G05G06G07G08G09G10G11G12G13
+        G14G15G16G17G18G19G20G21G22G23G24G25G26G27G28G29G30
+        G31G32J01J02J03R01R02R03R04R05R07R08R09R10R11R13R14
+        R15R16R17R18R19R20R21R22R23R24R26  0  0  0  0  0  0
++        12 12 12 12  8  8  9  8  8  7  7  8  7  8  4  4  4
++         4  4  5  4  4  4  4  4  5  4  4  4  4  4  4  4  4
++         4  5  5  4  3  3  3  4  3  3  3  3  3  3  3  3  3
++         3  3  3  3  3  3  3  3  3  3  3  3  3  3  3  3  3
++         3  3  9  9 10  6  5  5  5  5  5  5  5  5  5  6  5
++         5  6  5  5  7  6  5  5  5  6  8  0  0  0  0  0  0
%c M  cc GPS ccc cccc cccc cccc cccc ccccc ccccc ccccc ccccc
%c cc cc ccc ccc cccc cccc cccc cccc ccccc ccccc ccccc ccccc
%f  1.2500000  1.025000000  0.00000000000  0.000000000000000
%f  0.0000000  0.000000000  0.00000000000  0.000000000000000
%i    0    0    0    0      0      0      0      0         0
%i    0    0    0    0      0      0      0      0         0
/* INFORMATION & ANALYSIS CENTER (IAC)            FINAL DATA
/* S/V CLOCKS ARE ALIGNED TO GPS & GLONASS TIME RESPECTIVELY
/* USING THE BROADCAST EPHEMERIS                            
/* PCV:IGS14_2038 OL/AL:FES2004  NONE     YN ORB:CoN CLK:CoN
*  2019 03 14  6 15  0.00000000
PC01 -32305.317950  27104.154940    452.993264    328.530338
PC03 -14776.662929  39451.306786   -140.357742    -61.577565
PC04 -39631.520263  14437.610247    118.285601     12.475291
PC05  21914.637481  35975.196577  -1371.322256   -117.199582
PC06 -14636.393165  38275.636189  -8735.205718    528.894204
PC07  -8233.740102  25728.238383  32567.967045     98.632890
PC08 -25481.194264  23987.547589 -23623.388964    128.541756
PC09  -6593.024540  41123.233207   5468.789578    603.979790
PC10   4391.687357  31234.997186  28282.814430   -572.337992
PC11 -20373.574027   7247.748079  17728.421995    -49.952447
PC12  -3365.249508 -18354.460630  20791.700890    490.861310
PC13 -10746.723288  26060.091607 -31380.658943   -592.302495
PC14 -18222.019835 -13616.806135 -16133.040428    764.969368
PC16 -12319.989406  39747.930348  -6218.410242   -363.737934
PE01    202.475408  17905.595452  23563.921265   -561.709777
PE02   -262.355143 -17932.911991 -23556.404406     51.401405
PE03   3341.757880 -28953.989732   5131.806527   -143.669010
PE04   9460.124761  24876.869479  12957.434428   -239.954449
PE05  14273.228387 -16093.391049  20335.850866     91.992789
PE07 -16805.980403  -6122.219829 -23576.422330   -148.787331
PE08  -9633.490248 -24740.225654 -13073.364757   6389.244160
PE09  16722.890464   5987.677465  23686.349299   6500.815861
PE11  24421.366912  -1843.748183 -16637.476470   5715.812913
PE12   9175.474679  13631.950848 -24609.336018   6368.475496
PE13 -24285.583856   1835.372011  16828.028327    384.186758
PE14  -7635.903028  26343.302695  -4285.068900   6431.631780
PE15  -9514.773553 -13332.815399  24668.986008    917.237281
PE18  17853.993689 -21809.613115  -8746.411315   -590.271432
PE19  -4523.288492  28400.880012  -6992.208790     -7.755151
PE21 -19189.886734   5724.234287  21791.283086   -523.975395
PE24  26975.870747   9521.845898  -7575.343750   6186.392673
PE25  19224.638041  -5692.786850 -21775.418225   1866.089262
PE26 -25046.414337  15749.833033   -844.579673   4800.728872
PE27 -27036.248350  -9727.319179   7124.970194    510.937668
PE30 -19179.962540 -19497.234803 -11351.278918   5034.485247
PE31  19006.468680  19445.795801  11698.381069    883.623577
PE33 -10870.058554  20737.487235 -18089.255369    847.952292
PE36  24888.142303 -16007.870488    928.810837    736.748510
PG01   6003.900660  14062.912970 -21916.596120   -180.437766
PG02  16969.899146 -14765.484978  14590.275887   -163.024226
PG03  11188.722045  22579.398581  -8547.234340    186.331031
PG04  13932.850578   6180.797696  21763.472576    133.070829
PG05   6151.733499 -15338.489115  20633.614485      1.172627
PG06  25139.812627  -7502.291912   4289.518414    255.586233
PG07  19981.139761   8213.066241  15999.774895     15.295584
PG08  -5146.711010  25438.250903  -5076.675453   -136.090811
PG09  11389.551663  12060.532512  20696.306605    445.480989
PG10 -19915.969136  -5517.072787 -16734.782589     97.641751
PG11   1263.038417  18159.560538 -19938.952152   -645.347574
PG12  -8694.402324 -23185.561190 -10061.891615    260.303933
PG13  12752.198361 -23235.554543   1239.272289    -71.778767
PG14 -17284.382838  13494.338290 -14546.558398    -88.414994
PG15   1176.018512 -25433.034768  -7072.504216   -323.634077
PG16  -5627.547619  15614.327757  20445.303589    -25.270682
PG17  16353.190464  -4519.783020 -20002.831804     23.143732
PG18  -4923.278497  16305.563575 -20832.273956     34.640604
PG19  17645.028408 -12770.581401 -15559.878741   -342.515539
PG20 -22176.238543 -12170.302102  -8436.005198    523.074543
PG21 -22393.864988  -5075.718995  14045.991291   -232.869701
PG22   5442.798155  21378.937174 -14592.848822   -663.836874
PG23   4423.119992  21296.208612  15277.592466   -194.099521
PG24  -1869.210990 -15701.171478 -21479.486931    -63.345344
PG25 -17395.090449 -20247.037696    541.564030   -732.814857
PG26 -13875.715425   7318.523653  21431.150859    148.688623
PG27 -11927.426569  22960.970753   5152.437117    -85.791279
PG28  18897.914457   8486.938201 -15959.613714    766.276769
PG29  -6509.010093 -17037.377673  19283.424320    249.806009
PG30  25941.066498   1024.090187   6056.142350    -68.143942
PG31 -25123.698270   7565.959538   5444.695587     52.302915
PG32 -16873.497506   7894.876736 -18844.000022   -182.102405
PJ01 -17188.480502  26356.087008 -23478.957130   -347.003692
PJ02 -29111.263788  21015.254095  26848.746848      0.242061
PJ03 -30534.422369  27203.238548  15359.535051     -0.290431
PR01   9821.521677  21576.113217   9440.180875     40.794539
PR02  11636.741886   3487.748033  22460.733729    358.672608
PR03   6300.885221 -14986.600157  19711.987234     -7.686298
PR04  -3063.281197 -24826.901092   5052.579679    298.532443
PR05 -10120.912804 -20342.461527 -11604.226623     24.006344
PR07  -6067.533980  15365.046424 -19387.330368    -59.821960
PR08   2688.507467  24708.214805  -5671.707290     18.656625
PR09 -23862.979161  -3448.619520   8239.915305     58.997209
PR10 -14608.526386   5050.844535  20241.259790     44.894705
PR11   4208.129583  12412.935798  21899.208765    -59.626307
PR13  24245.239910   4037.868120  -6843.634565    -21.205583
PR14  14643.929810  -5398.305839 -20172.627865     36.886160
PR15  -3294.964991 -12065.372062 -22217.662699    100.609511
PR16 -19691.552489 -11635.590219 -11447.782657     10.776418
PR17  19078.268800 -16895.943788   -660.323236    211.926426
PR18   9527.277562 -18037.390971  15378.147054     36.328690
PR19  -5016.406016  -9431.112171  23169.610979    -60.557917
PR20 -18181.063728   5668.061561  16953.091735   -371.691977
PR21 -18932.148473  17109.186982     90.290421    -36.428100
PR22  -7429.318936  17152.942829 -17277.011885     -9.297624
PR23   9374.712595   5573.624919 -23061.003078    215.200516
PR24  18722.466125  -7266.654002 -15759.517218   -178.183653
PR26 -17112.665642   4202.758604  18466.981584      1.196295
EOF
